FLOCK 4G-2              
1 62661U 25009BE  26068.66207492  .00013752  00000+0  51068-3 0  9995
2 62661  97.4044 151.2221 0003181 329.2677  30.8376 15.27675260121321
STARLINK-36440          
1 67447U 26008C   26068.41085946  .00037547  00000+0  13658-2 0  9993
2 67447  42.9977 206.4372 0003050 295.2716  64.7819 15.27607504  9531
